NORAD_CAT_ID,OBJECT_NAME,OBJECT_TYPE,EPOCH,MEAN_MOTION,ECCENTRICITY,INCLINATION,RA_OF_ASC_NODE,ARG_OF_PERICENTER,MEAN_ANOMALY,BSTAR,MEAN_MOTION_DOT,MEAN_MOTION_DDOT,TLE_LINE0,TLE_LINE1,TLE_LINE2,SEMIMAJOR_AXIS,PERIOD,APOGEE,PERIGEE,DECAYED
53616.0,STARLINK-4605,PAYLOAD,2024-05-12 20:09:02,15.08834089,0.0001524,53.2174,333.1124,91.487,268.6297,0.0016374,0.00025863,0.0,0 STARLINK-4605,1 53616U 22104AE  24133.83961066  .00025863  00000-0  16374-2 0  9999,2 53616  53.2174 333.1124 0001524  91.4870 268.6297 15.08834089 94686,6917.898,95.438,540.818,538.709,0.0
53616.0,STARLINK-4605,PAYLOAD,2024-05-13 05:41:21,15.08850561,0.0001518,53.2174,331.3281,90.2227,269.8939,0.0014699,0.0002319,0.0,0 STARLINK-4605,1 53616U 22104AE  24134.23705010  .00023190  00000-0  14699-2 0  9998,2 53616  53.2174 331.3281 0001518  90.2227 269.8939 15.08850561 95428,6917.848,95.437,540.763,538.663,0.0
53616.0,STARLINK-4605,PAYLOAD,2024-05-14 13:29:02,15.08872908,0.0001568,53.218,325.3816,93.1,267.0171,0.00049264,7.568e-05,0.0,0 STARLINK-4605,1 53616U 22104AE  24135.56182898  .00007568  00000-0  49264-3 0  9996,2 53616  53.2180 325.3816 0001568  93.1000 267.0171 15.08872908 95627,6917.78,95.435,540.73,538.56,0.0
53616.0,STARLINK-4605,PAYLOAD,2024-05-14 19:50:33,15.08887808,9.77e-05,53.2176,324.1915,67.6125,292.497,0.0010109,0.00015858,0.0,0 STARLINK-4605,1 53616U 22104AE  24135.82678085  .00015858  00000-0  10109-2 0  9999,2 53616  53.2176 324.1915 0000977  67.6125 292.4970 15.08887808 95664,6917.734,95.435,540.275,538.923,0.0
53616.0,STARLINK-4605,PAYLOAD,2024-05-15 05:22:51,15.08893234,0.0002043,53.2171,322.4071,86.2026,273.92,0.00072712,0.0001132,0.0,0 STARLINK-4605,1 53616U 22104AE  24136.22420809  .00011320  00000-0  72712-3 0  9992,2 53616  53.2171 322.4071 0002043  86.2026 273.9200 15.08893234 95048,6917.718,95.434,540.996,538.169,0.0
53616.0,STARLINK-4605,PAYLOAD,2024-05-15 21:16:42,15.08855514,0.0001298,53.2166,319.4306,119.4739,240.6383,0.00012299,1.671e-05,0.0,0 STARLINK-4605,1 53616U 22104AE  24136.88660761  .00001671  00000-0  12299-3 0  9999,2 53616  53.2166 319.4306 0001298 119.4739 240.6383 15.08855514 95143,6917.833,95.437,540.596,538.8,0.0
53616.0,STARLINK-4605,PAYLOAD,2024-05-16 13:10:34,15.08852839,0.0001427,53.216,316.4613,99.3354,260.7799,0.0018629,0.00029495,0.0,0 STARLINK-4605,1 53616U 22104AE  24137.54901295  .00029495  00000-0  18629-2 0  9999,2 53616  53.2160 316.4613 0001427  99.3354 260.7799 15.08852839 95240,6917.841,95.437,540.693,538.719,0.0
53616.0,STARLINK-4605,PAYLOAD,2024-05-16 17:56:43,15.08860346,0.0001322,53.2159,315.5689,96.481,263.6332,0.0022586,0.00035861,0.0,0 STARLINK-4605,1 53616U 22104AE  24137.74773130  .00035861  00000-0  22586-2 0  9997,2 53616  53.2159 315.5689 0001322  96.4810 263.6332 15.08860346 95955,6917.818,95.436,540.598,538.769,0.0
53616.0,STARLINK-4605,PAYLOAD,2024-05-17 05:04:25,15.08872542,3.62e-05,53.2155,313.4856,55.4211,304.6816,0.0020784,0.00032974,0.0,0 STARLINK-4605,1 53616U 22104AE  24138.21140700  .00032974  00000-0  20784-2 0  9991,2 53616  53.2155 313.4856 0000362  55.4211 304.6816 15.08872542 95344,6917.781,95.435,539.896,539.395,0.0
53616.0,STARLINK-4605,PAYLOAD,2024-05-17 11:25:59,15.08813759,0.0002169,53.217,312.2964,94.3776,265.7464,-0.00013353,-2.411e-05,0.0,0 STARLINK-4605,1 53616U 22104AE  24138.47637875 -.00002411  00000-0 -13353-3 0  9993,2 53616  53.2170 312.2964 0002169  94.3776 265.7464 15.08813759 95388,6917.961,95.439,541.326,538.325,0.0
53616.0,STARLINK-4605,PAYLOAD,2024-05-17 17:47:32,15.08818021,0.0001518,53.2163,311.1068,94.4457,265.6709,0.0026059,0.00041404,0.0,0 STARLINK-4605,1 53616U 22104AE  24138.74134548  .00041404  00000-0  26059-2 0  9991,2 53616  53.2163 311.1068 0001518  94.4457 265.6709 15.08818021 96106,6917.948,95.439,540.863,538.762,0.0
53616.0,STARLINK-4605,PAYLOAD,2024-05-18 04:55:14,15.08839542,7.91e-05,53.2148,309.0257,87.2884,272.8198,0.0024763,0.00039342,0.0,0 STARLINK-4605,1 53616U 22104AE  24139.20503146  .00039342  00000-0  24763-2 0  9995,2 53616  53.2148 309.0257 0000791  87.2884 272.8198 15.08839542 95495,6917.882,95.438,540.294,539.2,0.0
53616.0,STARLINK-4605,PAYLOAD,2024-05-18 11:16:47,15.08846397,0.0001189,53.2134,307.8351,90.0617,270.0512,0.0018244,0.00028872,0.0,0 STARLINK-4605,1 53616U 22104AE  24139.46999262  .00028872  00000-0  18244-2 0  9994,2 53616  53.2134 307.8351 0001189  90.0617 270.0512 15.08846397 95530,6917.861,95.437,540.548,538.903,0.0
53616.0,STARLINK-4605,PAYLOAD,2024-05-18 17:38:19,15.08882437,0.0001789,53.2153,306.6465,83.2858,276.8338,0.0028204,0.00044938,0.0,0 STARLINK-4605,1 53616U 22104AE  24139.73494765  .00044938  00000-0  28204-2 0  9990,2 53616  53.2153 306.6465 0001789  83.2858 276.8338 15.08882437 95570,6917.751,95.435,540.853,538.378,0.0
53616.0,STARLINK-4605,PAYLOAD,2024-05-19 14:18:19,15.08861895,0.00012,53.2142,302.7803,84.5435,275.5694,0.0013242,0.00020862,0.0,0 STARLINK-4605,1 53616U 22104AE  24140.59606356  .00020862  00000-0  13242-2 0  9993,2 53616  53.2142 302.7803 0001200  84.5435 275.5694 15.08861895 96380,6917.813,95.436,540.509,538.848,0.0
53616.0,STARLINK-4605,PAYLOAD,2024-05-19 20:39:52,15.0881996,0.0001497,53.2155,301.5939,95.7902,264.3261,0.0019103,0.00030229,0.0,0 STARLINK-4605,1 53616U 22104AE  24140.86102842  .00030229  00000-0  19103-2 0  9994,2 53616  53.2155 301.5939 0001497  95.7902 264.3261 15.08819960 95743,6917.942,95.439,540.842,538.771,0.0
53616.0,STARLINK-4605,PAYLOAD,2024-05-20 14:09:07,15.08847092,0.0001485,53.2165,298.3202,95.9606,264.1555,0.0013682,0.00021558,0.0,0 STARLINK-4605,1 53616U 22104AE  24141.58967184  .00021558  00000-0  13682-2 0  9993,2 53616  53.2165 298.3202 0001485  95.9606 264.1555 15.08847092 96539,6917.859,95.437,540.751,538.696,0.0
53616.0,STARLINK-4605,PAYLOAD,2024-05-20 20:30:40,15.08855644,0.0001416,53.2169,297.1306,93.1214,266.9941,0.0012549,0.00019749,0.0,0 STARLINK-4605,1 53616U 22104AE  24141.85462982  .00019749  00000-0  12549-2 0  9999,2 53616  53.2169 297.1306 0001416  93.1214 266.9941 15.08855644 95893,6917.833,95.437,540.677,538.718,0.0
53616.0,STARLINK-4605,PAYLOAD,2024-05-21 13:59:54,15.08843115,5.33e-05,53.2169,293.8606,131.6598,228.444,0.00028183,4.201e-05,0.0,0 STARLINK-4605,1 53616U 22104AE  24142.58326794  .00004201  00000-0  28183-3 0  9999,2 53616  53.2169 293.8606 0000533 131.6598 228.4440 15.08843115 96686,6917.871,95.437,540.105,539.367,0.0
53616.0,STARLINK-4605,PAYLOAD,2024-05-21 15:35:17,15.08841507,0.0001846,53.2164,293.563,135.0436,225.0706,-0.00014285,-2.561e-05,0.0,0 STARLINK-4605,1 53616U 22104AE  24142.64950688 -.00002561  00000-0 -14285-3 0  9998,2 53616  53.2164 293.5630 0001846 135.0436 225.0706 15.08841507 96010,6917.876,95.437,541.018,538.464,0.0
53616.0,STARLINK-4605,PAYLOAD,2024-05-23 13:41:28,15.08848385,0.0001342,53.2174,284.9425,115.5621,244.551,0.00036161,5.473e-05,0.0,0 STARLINK-4605,1 53616U 22104AE  24144.57047142  .00005473  00000-0  36161-3 0  9994,2 53616  53.2174 284.9425 0001342 115.5621 244.5510 15.08848385 96983,6917.855,95.437,540.648,538.791,0.0
53616.0,STARLINK-4605,PAYLOAD,2024-05-23 18:27:38,15.08845757,0.0001185,53.2162,284.0458,109.4928,250.6192,0.00025904,3.838e-05,0.0,0 STARLINK-4605,1 53616U 22104AE  24144.76919083  .00003838  00000-0  25904-3 0  9993,2 53616  53.2162 284.0458 0001185 109.4928 250.6192 15.08845757 96337,6917.863,95.437,540.548,538.908,0.0
53616.0,STARLINK-4605,PAYLOAD,2024-05-24 13:32:15,15.08838633,0.0001051,53.2155,280.4779,119.061,241.0488,6.3754e-05,7.27e-06,0.0,0 STARLINK-4605,1 53616U 22104AE  24145.56407228  .00000727  00000-0  63754-4 0  9995,2 53616  53.2155 280.4779 0001051 119.0610 241.0488 15.08838633 97138,6917.885,95.438,540.477,539.022,0.0
53616.0,STARLINK-4605,PAYLOAD,2024-05-24 18:18:24,15.08851142,0.0001279,53.2168,279.5856,100.3667,259.7469,0.00030947,4.642e-05,0.0,0 STARLINK-4605,1 53616U 22104AE  24145.76278874  .00004642  00000-0  30947-3 0  9997,2 53616  53.2168 279.5856 0001279 100.3667 259.7469 15.08851142 97162,6917.846,95.437,540.596,538.827,0.0
53616.0,STARLINK-4605,PAYLOAD,2024-05-25 13:23:02,15.08844965,0.0001328,53.2168,276.0143,104.0729,256.0411,0.00013876,1.921e-05,0.0,0 STARLINK-4605,1 53616U 22104AE  24146.55766963  .00001921  00000-0  13876-3 0  9995,2 53616  53.2168 276.0143 0001328 104.0729 256.0411 15.08844965 96608,6917.865,95.437,540.649,538.812,0.0
53616.0,STARLINK-4605,PAYLOAD,2024-05-25 14:58:26,15.08828376,0.0001934,53.2163,275.7269,72.2364,287.8839,-8.3981e-05,-1.624e-05,0.0,0 STARLINK-4605,1 53616U 22104AE  24146.62391985 -.00001624  00000-0 -83981-4 0  9998,2 53616  53.2163 275.7269 0001934  72.2364 287.8839 15.08828376 97292,6917.916,95.438,541.119,538.443,0.0
53616.0,STARLINK-4605,PAYLOAD,2024-05-25 18:09:14,15.08799009,0.0001597,53.2177,275.1248,79.6399,280.4773,-0.0004712,-7.771e-05,0.0,0 STARLINK-4605,1 53616U 22104AE  24146.75641712 -.00007771  00000-0 -47120-3 0  9991,2 53616  53.2177 275.1248 0001597  79.6399 280.4773 15.08799009 96635,6918.006,95.44,540.975,538.766,0.0
53616.0,STARLINK-4605,PAYLOAD,2024-05-26 02:06:10,15.08811191,0.0001445,53.2162,273.6448,55.9365,304.1764,-0.00026903,-4.564e-05,0.0,0 STARLINK-4605,1 53616U 22104AE  24147.08761629 -.00004564  00000-0 -26903-3 0  9991,2 53616  53.2162 273.6448 0001445  55.9365 304.1764 15.08811191 96682,6917.968,95.439,540.833,538.834,0.0
53616.0,STARLINK-4605,PAYLOAD,2024-05-26 13:13:50,15.08846318,0.0001594,53.217,271.558,83.8812,276.2361,0.00015078,2.113e-05,0.0,0 STARLINK-4605,1 53616U 22104AE  24147.55128155  .00002113  00000-0  15078-3 0  9991,2 53616  53.2170 271.5580 0001594  83.8812 276.2361 15.08846318 96756,6917.861,95.437,540.829,538.623,0.0
53616.0,STARLINK-4605,PAYLOAD,2024-05-26 14:49:13,15.08846089,0.0001631,53.2171,271.2611,80.694,279.4237,0.00015348,2.156e-05,0.0,0 STARLINK-4605,1 53616U 22104AE  24147.61752236  .00002156  00000-0  15348-3 0  9998,2 53616  53.2171 271.2611 0001631  80.6940 279.4237 15.08846089 97447,6917.862,95.437,540.855,538.598,0.0
